[
    {
        "Altitude(m)": 622200.0881563114,
        "Argument of Periapsis(deg)": 0.0,
        "Eccentricity": 0.0,
        "Inclination(deg)": 60.0,
        "Latitude(deg)": -52.162485664497574,
        "Longitude(deg)": 47.36086110749836,
        "Mean Anomaly(deg)": -65.45449999999995,
        "RAAN(deg)": 195.00000000000003,
        "Satellite Name": "Test1 876",
        "Satellite Number": 876,
        "Semi-Major Axis(m)": 6980739.136638005,
        "Time(s)": 0
    },
    {
        "Altitude(m)": 622058.2554350876,
        "Argument of Periapsis(deg)": 0.00010418945913296404,
        "Eccentricity": 0.0,
        "Inclination(deg)": 60.0,
        "Latitude(deg)": -51.799234182690014,
        "Longitude(deg)": 48.12891668089572,
        "Mean Anomaly(deg)": -64.8343938545381,
        "RAAN(deg)": 194.99957995086024,
        "Satellite Name": "Test1 876",
        "Satellite Number": 876,
        "Semi-Major Axis(m)": 6980739.136638005,
        "Time(s)": 10
    }
]